0 ARIANE 5 R/B
1 26496U 00054C   13279.86648167  .00000089  00000-0  12804-2 0  2418
2 26496 006.6731 161.3786 7183309 100.8501 037.8415 02.24109776106979
0 ARIANE 5 R/B
1 26496U 00054C   13282.06050185  .00000124  00000-0  14764-2 0  2429
2 26496 006.6762 160.4683 7183500 102.5557 007.9679 02.24110064107021
0 ARIANE 5 R/B
1 26496U 00054C   13287.53169242  .00000022  00000-0  45293-3 0  2442
2 26496 006.6860 158.1982 7184038 106.8090 102.1032 02.24112298107147
0 ARIANE 5 R/B
1 26496U 00054C   13291.72116039 -.00000061  00000-0  50159-3 0  2456
2 26496 006.6949 156.4615 7184473 110.0653 242.1772 02.24112641107243
0 ARIANE 5 R/B
1 26496U 00054C   13293.72847362 -.00000052  00000-0  55822-3 0  2461
2 26496 006.6994 155.6298 7184687 111.6259 061.6856 02.24112721107287
